TIANQI-6                
1 46810U 20076D   26188.67197058  .00002492  00000+0  16333-3 0  9997
2 46810  34.9995 282.7324 0010423 346.5882  13.4550 15.07324505311672
KSM1-C                  
1 46906U 20081B   26189.21563380  .00007206  00000+0  26812-3 0  9996
2 46906  36.8959 289.0877 0002163  12.9090 347.1715 15.27108479312380
KSM1-D                  
1 46907U 20081C   26188.78725672  .00006053  00000+0  24040-3 0  9992
2 46907  36.8978 301.1431 0002713  54.7217 305.3785 15.25035856312244
KSM1-A                  
1 46912U 20081H   26188.70642472  .00006585  00000+0  25143-3 0  9991
2 46912  36.8970 294.7830 0002045 131.4216 228.6709 15.26301643312314
R2                      
1 46913U 20081J   26188.34245470  .00005828  00000+0  22665-3 0  9994
2 46913  36.8977 297.1174 0006900  94.8784 265.2753 15.25744005315069
KSM1-B                  
1 46914U 20081K   26188.99004626  .00004809  00000+0  19306-3 0  9998
2 46914  36.9030 300.5514 0004105  89.2292 270.8927 15.24819874315369
GONETS-M 20             
1 47227U 20091A   26189.17669073  .00000193  00000+0  13166-2 0  9990
2 47227  82.5051 289.3896 0021998 133.4808 226.8105 12.42895043253682
GONETS-M 21             
1 47228U 20091B   26189.23115414  .00000204  00000+0  13971-2 0  9990
2 47228  82.4974 288.0500 0015660 146.2107 213.9974 12.42888170253681
GONETS-M 22             
1 47229U 20091C   26189.20416194  .00000119  00000+0  78819-3 0  9995
2 47229  82.5033 288.9752 0022885 128.9545 231.3579 12.42893948253636
CUBEL                   
1 47448U 21006AM  26189.12808711  .00005555  00000+0  13260-3 0  9994
2 47448  97.2316 239.5217 0008033 102.1324 258.0824 15.41907600302987
ARKTIKA-M 1             
1 47719U 21016A   26187.93041206 -.00000246  00000+0  00000+0 0  9998
2 47719  63.2564  54.7781 7294848 270.0184  14.5557  2.00615031 39188
STARLINK-2342           
1 47883U 21021Z   26189.16668980  .00174896  22130-4  59184-3 0  9993
2 47883  53.1516  42.2992 0006529 259.5189  55.7712 15.89607225  5986
GRUS-1B                 
1 47934U 21022C   26189.20710964  .00001114  00000+0  97134-4 0  9993
2 47934  97.5339  71.7056 0014555 245.1839 114.7870 14.98763897289046
UNISAT-7                
1 47945U 21022P   26188.68236707  .00010612  00000+0  25861-3 0  9994
2 47945  97.3865  93.8255 0008905  15.4162 344.7354 15.41053320293011
GLOBAL-9                
1 47971U 21023G   26188.20670809  .00016065  00000+0  31354-3 0  9999
2 47971  44.9802 137.9417 0002639 104.7424 255.3759 15.47367821298044
AII-BRAVO               
1 48270U 21034C   26189.11793300  .00001983  00000+0  14927-3 0  9997
2 48270  97.5591 243.5530 0005757 181.5706 178.5503 15.03629678282764
TYVAK-182A              
1 48271U 21034D   26189.12325853  .00003005  00000+0  20835-3 0  9995
2 48271  97.5704 247.6777 0004639 252.7211 107.3509 15.06359315282980
CSS (TIANHE)            
1 48274U 21035A   26188.90756394  .00006844  00000+0  92847-4 0  9999
2 48274  41.4677 196.0018 0002951 276.1946  83.8555 15.58032789296406
TYVAK-0130              
1 48606U 21041BF  26188.32564764  .00004231  00000+0  16609-3 0  9998
2 48606  52.9944 292.5437 0008596 230.0440 129.9803 15.27863010283460
HAIYANG-2D              
1 48621U 21043A   26189.18570159  .00000221  00000+0  27400-3 0  9993
2 48621  65.9978 252.4215 0011566 266.6932  93.2813 13.83374095259455
2021-050D               
1 48843U 21050D   26189.22294503  .00003223  00000+0  13774-3 0  9992
2 48843  97.3325 264.7814 0005716 175.1590 184.9703 15.23547237282167
TYVAK-0173              
1 48892U 21059P   26188.72467088  .00001372  00000+0  17709-3 0  9994
2 48892  96.0077 259.9764 0007838 330.4183  29.6590 14.81956396271285
MANDRAKE 2 ABLE         
1 48907U 21059AE  26187.98923791  .00016663  00000+0  24258-3 0  9992
2 48907  97.7037  19.2949 0003509 274.1422  85.9430 15.55818938280200
MANDRAKE 2 BAKER        
1 48908U 21059AF  26188.50262764  .00020894  00000+0  25342-3 0  9994
2 48908  97.7002  22.8649 0002212 257.3907 102.7102 15.60658567280469
PACE-1                  
1 48909U 21059AG  26187.07230236  .00126204  00000+0  57119-3 0  9994
2 48909  97.6734  27.3937 0002866 201.5313 158.5836 15.83608652280781
YAM-3                   
1 48915U 21059AN  26189.12972435  .00008155  00000+0  15240-3 0  9996
2 48915  97.7002  17.4604 0003734 278.6486  81.4341 15.49032342280233
FARADAY_PHOENIX         
1 48924U 21059AX  26188.96993602  .00132315  00000+0  56325-3 0  9991
2 48924  97.6788  29.4083 0005330 219.6524 140.4356 15.84876261280944
DEMO8 (TENZING)         
1 48951U 21059CA  26187.99233349  .00015424  00000+0  22487-3 0  9991
2 48951  97.7022  22.9295 0005334 268.1981  91.8662 15.55788133280384
FENGYUN 3E              
1 49008U 21062A   26189.20082878  .00000337  00000+0  17945-3 0  9994
2 49008  98.7501 192.3747 0002523  51.2324 308.9077 14.19907009259566
