OBJECT_NAME,OBJECT_ID,EPOCH,MEAN_MOTION,ECCENTRICITY,INCLINATION,RA_OF_ASC_NODE,ARG_OF_PERICENTER,MEAN_ANOMALY,EPHEMERIS_TYPE,CLASSIFICATION_TYPE,NORAD_CAT_ID,ELEMENT_SET_NO,REV_AT_EPOCH,BSTAR,MEAN_MOTION_DOT,MEAN_MOTION_DDOT
TIANQI-6,2020-076D,2026-07-07T16:07:38.258112,15.07324505,.0010423,34.9995,282.7324,346.5882,13.4550,0,U,46810,999,31167,.16333E-3,.2492E-4,0
KSM1-C,2020-081B,2026-07-08T05:10:30.760320,15.27108479,.0002163,36.8959,289.0877,12.9090,347.1715,0,U,46906,999,31238,.26812E-3,.7206E-4,0
KSM1-D,2020-081C,2026-07-07T18:53:38.980608,15.25035856,.0002713,36.8978,301.1431,54.7217,305.3785,0,U,46907,999,31224,.2404E-3,.6053E-4,0
KSM1-A,2020-081H,2026-07-07T16:57:15.095808,15.26301643,.0002045,36.8970,294.7830,131.4216,228.6709,0,U,46912,999,31231,.25143E-3,.6585E-4,0
R2,2020-081J,2026-07-07T08:13:08.086080,15.25744005,.00069002,36.8977,297.1174,94.8784,265.2753,0,U,46913,999,31506,.22665025E-3,.5828E-4,0
KSM1-B,2020-081K,2026-07-07T23:45:39.996864,15.24819874,.0004105,36.9030,300.5514,89.2292,270.8927,0,U,46914,999,31536,.19306E-3,.4809E-4,0
GONETS-M 20,2020-091A,2026-07-08T04:14:26.079072,12.42895043,.0021998,82.5051,289.3896,133.4808,226.8105,0,U,47227,999,25368,.13166E-2,.193E-5,0
GONETS-M 21,2020-091B,2026-07-08T05:32:51.717696,12.42888170,.001566,82.4974,288.0500,146.2107,213.9974,0,U,47228,999,25368,.13971E-2,.204E-5,0
GONETS-M 22,2020-091C,2026-07-08T04:53:59.591616,12.42893948,.0022885,82.5033,288.9752,128.9545,231.3579,0,U,47229,999,25363,.78819E-3,.119E-5,0
CUBEL,2021-006AM,2026-07-08T03:04:26.726304,15.41907600,.0008033,97.2316,239.5217,102.1324,258.0824,0,U,47448,999,30298,.1326E-3,.5555E-4,0
ARKTIKA-M 1,2021-016A,2026-07-06T22:19:47.601984,2.00615031,.72948481,63.2564,54.7781,270.0184,14.5557,0,U,47719,999,3918,0,-.246E-5,0
STARLINK-2342,2021-021Z,2026-07-08T04:00:01.998720,15.89607225,.0006529,53.1516,42.2992,259.5189,55.7712,0,U,47883,999,598,.59184E-3,.174896E-2,.2213E-4
GRUS-1B,2021-022C,2026-07-08T04:58:14.272896,14.98763897,.0014555,97.5339,71.7056,245.1839,114.7870,0,U,47934,999,28904,.97134E-4,.1114E-4,0
UNISAT-7,2021-022P,2026-07-07T16:22:36.514848,15.41053320,.0008905,97.3865,93.8255,15.4162,344.7354,0,U,47945,999,29301,.25861E-3,.10612E-3,0
GLOBAL-9,2021-023G,2026-07-07T04:57:39.578976,15.47367821,.00026394,44.9802,137.9417,104.7424,255.3759,0,U,47971,999,29804,.3135369E-3,.16065E-3,0
AII-BRAVO,2021-034C,2026-07-08T02:49:49.411200,15.03629678,.0005757,97.5591,243.5530,181.5706,178.5503,0,U,48270,999,28276,.14927E-3,.1983E-4,0
TYVAK-182A,2021-034D,2026-07-08T02:57:29.536992,15.06359315,.0004639,97.5704,247.6777,252.7211,107.3509,0,U,48271,999,28298,.20835E-3,.3005E-4,0
CSS (TIANHE),2021-035A,2026-07-07T21:46:53.524416,15.58032789,.0002951,41.4677,196.0018,276.1946,83.8555,0,U,48274,999,29640,.92847E-4,.6844E-4,0
TYVAK-0130,2021-041BF,2026-07-07T07:48:55.956096,15.27863010,.00085962,52.9944,292.5437,230.0440,129.9803,0,U,48606,999,28346,.1660856E-3,.4231E-4,0
HAIYANG-2D,2021-043A,2026-07-08T04:27:24.617376,13.83374095,.0011566,65.9978,252.4215,266.6932,93.2813,0,U,48621,999,25945,.274E-3,.221E-5,0
2021-050D,2021-050D,2026-07-08T05:21:02.450592,15.23547237,.0005716,97.3325,264.7814,175.1590,184.9703,0,U,48843,999,28216,.13774E-3,.3223E-4,0
TYVAK-0173,2021-059P,2026-07-07T17:23:31.564032,14.81956396,.0007838,96.0077,259.9764,330.4183,29.6590,0,U,48892,999,27128,.17709E-3,.1372E-4,0
MANDRAKE 2 ABLE,2021-059AE,2026-07-06T23:44:30.155424,15.55818938,.0003509,97.7037,19.2949,274.1422,85.9430,0,U,48907,999,28020,.24258378E-3,.16663E-3,0
MANDRAKE 2 BAKER,2021-059AF,2026-07-07T12:03:47.028096,15.60658567,.00022128,97.7002,22.8649,257.3907,102.7102,0,U,48908,999,28046,.25342392E-3,.20894E-3,0
PACE-1,2021-059AG,2026-07-06T01:44:06.923904,15.83608652,.0002866,97.6734,27.3937,201.5313,158.5836,0,U,48909,999,28078,.57119E-3,.126204E-2,0
YAM-3,2021-059AN,2026-07-08T03:06:48.183840,15.49032342,.0003734,97.7002,17.4604,278.6486,81.4341,0,U,48915,999,28023,.1524E-3,.8155E-4,0
FARADAY_PHOENIX,2021-059AX,2026-07-07T23:16:42.472128,15.84876261,.000533,97.6788,29.4083,219.6524,140.4356,0,U,48924,999,28094,.56325E-3,.132315E-2,0
DEMO8 (TENZING),2021-059CA,2026-07-06T23:48:57.613536,15.55788133,.0005334,97.7022,22.9295,268.1981,91.8662,0,U,48951,999,28038,.22487485E-3,.15424E-3,0
FENGYUN 3E,2021-062A,2026-07-08T04:49:11.606592,14.19907009,.0002523,98.7501,192.3747,51.2324,308.9077,0,U,49008,999,25956,.17945E-3,.337E-5,0
